GOES 1 [-]              
1 08366U 75100A   13052.83812894 -.00000024  00000-0  10000-3 0  3074
2 08366  13.8058 335.8482 0001031 129.3057 230.7424  1.00234192136447
GOES 2 [-]              
1 10061U 77048A   13053.59513761 -.00000259  00000-0  10000-3 0  5169
2 10061  14.5947 344.3741 0012207 285.2897  74.6119  0.99400966 75181
GOES 3 [P]              
1 10953U 78062A   13052.84432478 -.00000095  00000-0  10000-3 0  1173
2 10953  14.5343 347.9821 0005855  73.3656 286.7292  1.00278530 80164
GOES 4 [-]              
1 11964U 80074A   13052.10267831 -.00000259  00000-0  10000-3 0  7358
2 11964  15.1022 351.6505 0033240 335.3658  24.5003  0.99233826 79376
GOES 5 [-]              
1 12472U 81049A   13053.96969003  .00000082  00000-0  10000-3 0  6061
2 12472  14.6656   1.8011 0002302  95.4259 264.6285  1.00251329 74218
GOES 6 [-]              
1 14050U 83041A   13052.94479146  .00000017  00000-0  10000-3 0  6170
2 14050  14.5942   6.6848 0004558  68.0541 292.0226  1.00232999167300
GOES 7 [-]              
1 17561U 87022A   13053.26125952 -.00000346  00000-0  10000-3 0  8260
2 17561  14.1985  22.9860 0004200 333.2440  26.7745  0.99906258 78400
GOES 8 [-]              
1 23051U 94022A   13052.19795078 -.00000102  00000-0  10000-3 0  4651
2 23051   8.8351  55.9931 0003414 232.8948 127.1928  0.98906602 76023
GOES 9 [P]              
1 23581U 95025A   13052.89311146 -.00000158  00000-0  10000-3 0  7519
2 23581   8.3706  54.4830 0006079   2.4289 357.7109  0.98800326 64723
GOES 10 [-]             
1 24786U 97019A   13053.82467077 -.00000255  00000-0  10000-3 0  6800
2 24786   6.6139  57.9010 0024535 107.8762 252.5722  0.99125577 57873
GOES 11 [+]             
1 26352U 00022A   13053.58225770 -.00000108  00000-0  00000+0 0  1081
2 26352   1.6860 105.0516 0002728 357.0116   3.2334  0.99041045 46851
GOES 12 [B]             
1 26871U 01031A   13054.25662917 -.00000293  00000-0  10000-3 0  9449
2 26871   2.8084  70.4548 0002019 311.2984 164.3885  1.00277292 42513
GOES 13 [+]             
1 29155U 06018A   13051.41999197 -.00000259  00000-0  10000-3 0  4307
2 29155   0.3928  90.9255 0001911 319.2552 176.7385  1.00267877 24736
GOES 14 [S]             
1 35491U 09033A   13052.32867208 -.00000095  00000-0  10000-3 0  8486
2 35491   0.0207 235.8079 0004001 357.8443 290.5557  1.00272289 13419
GOES 15 [S]             
1 36411U 10008A   13054.47663101  .00000081  00000-0  10000-3 0  4544
2 36411   0.0572 254.5192 0002339  15.1594 280.1283  1.00267300 10937
